[{"OBJECT_NAME":"STARLINK-36473","OBJECT_ID":"2026-002W","EPOCH":"2026-03-09T18:38:30.151968","MEAN_MOTION":15.27591602,"ECCENTRICITY":0.00016319,"INCLINATION":43.0009,"RA_OF_ASC_NODE":324.6501,"ARG_OF_PERICENTER":269.827,"MEAN_ANOMALY":90.2395,"EPHEMERIS_TYPE":0,"CLASSIFICATION_TYPE":"U","NORAD_CAT_ID":67325,"ELEMENT_SET_NO":999,"REV_AT_EPOCH":1125,"BSTAR":0.00097584716,"MEAN_MOTION_DOT":0.00026698,"MEAN_MOTION_DDOT":0},{"OBJECT_NAME":"IUS R\/B(1)","OBJECT_ID":"1985-092D","EPOCH":"2026-03-09T16:00:11.531232","MEAN_MOTION":2.29189376,"ECCENTRICITY":0.71752234,"INCLINATION":24.9968,"RA_OF_ASC_NODE":192.5453,"ARG_OF_PERICENTER":126.283,"MEAN_ANOMALY":322.7609,"EPHEMERIS_TYPE":0,"CLASSIFICATION_TYPE":"U","NORAD_CAT_ID":16118,"ELEMENT_SET_NO":999,"REV_AT_EPOCH":5853,"BSTAR":0.00053764889,"MEAN_MOTION_DOT":-2.3e-7,"MEAN_MOTION_DDOT":0}]
